{
  "type": "FeatureCollection",
  "features": [
    {
      "type": "Feature",
      "properties": {},
      "geometry": {
        "coordinates": [
          [
            [
              78.17457184820864,
              26.191870451817522
            ],
            [
              78.17444192237161,
              26.19183959102932
            ],
            [
              78.17457566955727,
              26.191417826108676
            ],
            [
              78.17469795269835,
              26.191445258019783
            ],
            [
              78.17457184820864,
              26.191870451817522
            ]
          ]
        ],
        "type": "Polygon"
      }
    },
    {
      "type": "Feature",
      "properties": {},
      "geometry": {
        "coordinates": [
          [
            [
              78.17462534708318,
              26.19168957319387
            ],
            [
              78.17465854667495,
              26.191581881846858
            ],
            [
              78.17498933049609,
              26.191661284094707
            ],
            [
              78.17495589369935,
              26.191774440450303
            ],
            [
              78.17462534708318,
              26.19168957319387
            ]
          ]
        ],
        "type": "Polygon"
      }
    },
    {
      "type": "Feature",
      "properties": {},
      "geometry": {
        "coordinates": [
          [
            [
              78.17443542176636,
              26.192172854026367
            ],
            [
              78.17446048572305,
              26.192077494873033
            ],
            [
              78.1752625323652,
              26.192270012328947
            ],
            [
              78.17523145305802,
              26.19237076900197
            ],
            [
              78.17443542176636,
              26.192172854026367
            ]
          ]
        ],
        "type": "Polygon"
      }
    },
    {
      "type": "Feature",
      "properties": {},
      "geometry": {
        "coordinates": [
          [
            [
              78.17487751677379,
              26.192176660025396
            ],
            [
              78.17483237381401,
              26.192165083377674
            ],
            [
              78.17503135183694,
              26.191532381859304
            ],
            [
              78.17507092664675,
              26.191541259712096
            ],
            [
              78.17487751677379,
              26.192176660025396
            ]
          ]
        ],
        "type": "Polygon"
      }
    },
    {
      "type": "Feature",
      "properties": {
        "name": "Entrance Gateway Zone",
        "is_entrance": true,
        "type": "entrance"
      },
      "geometry": {
        "coordinates": [
          [
            [
              78.17478552796354,
              26.192305137217573
            ],
            [
              78.17479608916148,
              26.192262567049625
            ],
            [
              78.17488191984978,
              26.192283626498778
            ],
            [
              78.17486431785318,
              26.192325745384935
            ],
            [
              78.17478552796354,
              26.192305137217573
            ]
          ]
        ],
        "type": "Polygon"
      }
    },
    {
      "type": "Feature",
      "properties": {},
      "geometry": {
        "coordinates": [
          [
            [
              78.17468233187441,
              26.191500769332208
            ],
            [
              78.17469819485416,
              26.191446479498026
            ],
            [
              78.17484548432304,
              26.191485128205173
            ],
            [
              78.1748266697578,
              26.19153859026693
            ],
            [
              78.17468233187441,
              26.191500769332208
            ]
          ]
        ],
        "type": "Polygon"
      }
    },
    {
      "type": "Feature",
      "properties": {},
      "geometry": {
        "coordinates": [
          [
            [
              78.174247252128,
              26.19244184506931
            ],
            [
              78.17433395232672,
              26.192152198529158
            ],
            [
              78.1744439948859,
              26.192180923838407
            ],
            [
              78.17435462699018,
              26.19247116874955
            ],
            [
              78.174247252128,
              26.19244184506931
            ]
          ]
        ],
        "type": "Polygon"
      }
    },
    {
      "type": "Feature",
      "properties": {},
      "geometry": {
        "coordinates": [
          [
            [
              78.17433424731644,
              26.192151259305476
            ],
            [
              78.17436270544846,
              26.1920460491729
            ],
            [
              78.17446033590602,
              26.192072869456183
            ],
            [
              78.1744312804214,
              26.192174048701318
            ],
            [
              78.17433424731644,
              26.192151259305476
            ]
          ]
        ],
        "type": "Polygon"
      }
    },
    {
      "type": "Feature",
      "properties": {},
      "geometry": {
        "coordinates": [
          [
            [
              78.1752380459809,
              26.192371144920173
            ],
            [
              78.17527028711794,
              26.192262823601368
            ],
            [
              78.17572041479542,
              26.19237047202172
            ],
            [
              78.17568367489457,
              26.192484848460722
            ],
            [
              78.1752380459809,
              26.192371144920173
            ]
          ]
        ],
        "type": "Polygon"
      }
    },
    {
      "type": "Feature",
      "properties": {},
      "geometry": {
        "coordinates": [
          [
            [
              78.17542322271765,
              26.192298662650416
            ],
            [
              78.17551887069203,
              26.19196640357815
            ],
            [
              78.17566196234293,
              26.191999186306504
            ],
            [
              78.17556038949806,
              26.192331847015836
            ],
            [
              78.17542322271765,
              26.192298662650416
            ]
          ]
        ],
        "type": "Polygon"
      }
    },
    {
      "type": "Feature",
      "properties": {},
      "geometry": {
        "coordinates": [
          [
            [
              78.1749234560458,
              26.192027131257262
            ],
            [
              78.17495595224233,
              26.191923453059403
            ],
            [
              78.17515454010737,
              26.191968002296505
            ],
            [
              78.17512475192751,
              26.192079780306884
            ],
            [
              78.1749234560458,
              26.192027131257262
            ]
          ]
        ],
        "type": "Polygon"
      }
    },
    {
      "type": "Feature",
      "properties": {},
      "geometry": {
        "coordinates": [
          [
            [
              78.17487606088952,
              26.192018391904853
            ],
            [
              78.17470274784324,
              26.19197627264407
            ],
            [
              78.17472982800655,
              26.19186368454757
            ],
            [
              78.17491216777375,
              26.191905803849096
            ],
            [
              78.17487606088952,
              26.192018391904853
            ]
          ]
        ],
        "type": "Polygon"
      }
    },
    {
      "type": "Feature",
      "properties": {},
      "geometry": {
        "coordinates": [
          [
            [
              78.17512855851976,
              26.191961860231743
            ],
            [
              78.17516774801533,
              26.191823024808414
            ],
            [
              78.17529447768544,
              26.19185499350587
            ],
            [
              78.17525070759757,
              26.19199291550143
            ],
            [
              78.17512855851976,
              26.191961860231743
            ]
          ]
        ],
        "type": "Polygon"
      }
    },
    {
      "type": "Feature",
      "properties": {},
      "geometry": {
        "coordinates": [
          [
            [
              78.17499742573716,
              26.19178134167207
            ],
            [
              78.17502936730176,
              26.191671779353314
            ],
            [
              78.17518083214208,
              26.191710149290884
            ],
            [
              78.17515043613594,
              26.191822023013202
            ],
            [
              78.17499742573716,
              26.19178134167207
            ]
          ]
        ],
        "type": "Polygon"
      }
    },
    {
      "type": "Feature",
      "properties": {},
      "geometry": {
        "coordinates": [
          [
            [
              78.17523940019504,
              26.191581221707324
            ],
            [
              78.17484743009078,
              26.191483442427554
            ],
            [
              78.17487957163905,
              26.191371594085254
            ],
            [
              78.17527546144481,
              26.191470780355942
            ],
            [
              78.17523940019504,
              26.191581221707324
            ]
          ]
        ],
        "type": "Polygon"
      }
    },
    {
      "type": "Feature",
      "properties": {},
      "geometry": {
        "coordinates": [
          [
            [
              78.17438265831385,
              26.1920482046813
            ],
            [
              78.1744495608529,
              26.19184212981139
            ],
            [
              78.17454155184384,
              26.191862333246334
            ],
            [
              78.17448622859024,
              26.192079952878203
            ],
            [
              78.17438265831385,
              26.1920482046813
            ]
          ]
        ],
        "type": "Polygon"
      },
      "id": 15
    },
    {
      "type": "Feature",
      "properties": {},
      "geometry": {
        "coordinates": [
          [
            [
              78.17457577124992,
              26.191417809652364
            ],
            [
              78.17459691439296,
              26.191352374693622
            ],
            [
              78.17472032131485,
              26.19138257544809
            ],
            [
              78.1747000411562,
              26.191444138501353
            ],
            [
              78.17457577124992,
              26.191417809652364
            ]
          ]
        ],
        "type": "Polygon"
      }
    },
    {
      "type": "Feature",
      "properties": {},
      "geometry": {
        "coordinates": [
          [
            [
              78.17484502271498,
              26.191483631763177
            ],
            [
              78.1747013356345,
              26.19144723601198
            ],
            [
              78.17473326609729,
              26.191366313504204
            ],
            [
              78.17487048078601,
              26.19139612706593
            ],
            [
              78.17484502271498,
              26.191483631763177
            ]
          ]
        ],
        "type": "Polygon"
      }
    },
    {
      "type": "Feature",
      "properties": {},
      "geometry": {
        "coordinates": [
          [
            78.17316913449633,
            26.193007267058746
          ],
          [
            78.1733546305606,
            26.192974190871013
          ],
          [
            78.17385285396199,
            26.19271171498201
          ],
          [
            78.17379815640436,
            26.193125701074294
          ]
        ],
        "type": "LineString"
      }
    },
    {
      "type": "Feature",
      "properties": {},
      "geometry": {
        "coordinates": [
          [
            78.17413401664436,
            26.192501445893072
          ],
          [
            78.17417911128314,
            26.192435560013166
          ]
        ],
        "type": "LineString"
      }
    },
    {
      "type": "Feature",
      "properties": {},
      "geometry": {
        "coordinates": [
          [
            78.1738526090125,
            26.192711864983934
          ],
          [
            78.17413408258903,
            26.192501575411853
          ],
          [
            78.17427234268098,
            26.192528504679515
          ]
        ],
        "type": "LineString"
      }
    },
    {
      "type": "Feature",
      "properties": {},
      "geometry": {
        "coordinates": [
          [
            78.1742723457919,
            26.192528624069624
          ],
          [
            78.17442092246847,
            26.192557408402166
          ],
          [
            78.1744335584122,
            26.192931921174775
          ]
        ],
        "type": "LineString"
      }
    },
    {
      "type": "Feature",
      "properties": {},
      "geometry": {
        "coordinates": [
          [
            78.1755320875912,
            26.192807461311062
          ],
          [
            78.17615770983326,
            26.192670465459216
          ],
          [
            78.17633107927304,
            26.192875358362016
          ]
        ],
        "type": "LineString"
      }
    },
    {
      "type": "Feature",
      "properties": {},
      "geometry": {
        "coordinates": [
          [
            78.17482280420091,
            26.19229484546615
          ],
          [
            78.17484521302254,
            26.192225095193976
          ]
        ],
        "type": "LineString"
      }
    },
    {
      "type": "Feature",
      "properties": {},
      "geometry": {
        "coordinates": [
          [
            78.17427257204207,
            26.192528698778133
          ],
          [
            78.17439080190178,
            26.19249336954769
          ]
        ],
        "type": "LineString"
      }
    },
    {
      "type": "Feature",
      "properties": {},
      "geometry": {
        "coordinates": [
          [
            78.17439114520778,
            26.192493115764393
          ],
          [
            78.17459973101177,
            26.192540500758255
          ]
        ],
        "type": "LineString"
      }
    },
    {
      "type": "Feature",
      "properties": {},
      "geometry": {
        "coordinates": [
          [
            78.17459967759015,
            26.192541142868606
          ],
          [
            78.17463334346422,
            26.192439963845928
          ]
        ],
        "type": "LineString"
      }
    },
    {
      "type": "Feature",
      "properties": {},
      "geometry": {
        "coordinates": [
          [
            78.1746002593631,
            26.192540742736654
          ],
          [
            78.17472077469057,
            26.192567145407835
          ],
          [
            78.17482275653884,
            26.19229495119525
          ]
        ],
        "type": "LineString"
      }
    },
    {
      "type": "Feature",
      "properties": {},
      "geometry": {
        "coordinates": [
          [
            78.17484513560083,
            26.192224571800537
          ],
          [
            78.1744032871087,
            26.192111374119634
          ]
        ],
        "type": "LineString"
      }
    },
    {
      "type": "Feature",
      "properties": {},
      "geometry": {
        "coordinates": [
          [
            78.17440282497654,
            26.192111131174755
          ],
          [
            78.17432881462548,
            26.192365904753018
          ]
        ],
        "type": "LineString"
      }
    },
    {
      "type": "Feature",
      "properties": {},
      "geometry": {
        "coordinates": [
          [
            78.17442109443783,
            26.19255734185758
          ],
          [
            78.17470602661314,
            26.192620971221487
          ]
        ],
        "type": "LineString"
      }
    },
    {
      "type": "Feature",
      "properties": {},
      "geometry": {
        "coordinates": [
          [
            78.17472111403555,
            26.192567074438074
          ],
          [
            78.17470619424824,
            26.192621076733232
          ]
        ],
        "type": "LineString"
      }
    },
    {
      "type": "Feature",
      "properties": {},
      "geometry": {
        "coordinates": [
          [
            78.17470665994699,
            26.192621087622683
          ],
          [
            78.1755326461161,
            26.192807281080093
          ]
        ],
        "type": "LineString"
      }
    },
    {
      "type": "Feature",
      "properties": {},
      "geometry": {
        "coordinates": [
          [
            78.17492470604014,
            26.191939657442674
          ],
          [
            78.17496095262504,
            26.191828879691855
          ]
        ],
        "type": "LineString"
      }
    },
    {
      "type": "Feature",
      "properties": {},
      "geometry": {
        "coordinates": [
          [
            78.17496107754147,
            26.19182854352013
          ],
          [
            78.17517002416304,
            26.191883828845164
          ]
        ],
        "type": "LineString"
      }
    },
    {
      "type": "Feature",
      "properties": {},
      "geometry": {
        "coordinates": [
          [
            78.17516980425353,
            26.191883744194897
          ],
          [
            78.1751807007268,
            26.191847040455656
          ]
        ],
        "type": "LineString"
      }
    },
    {
      "type": "Feature",
      "properties": {},
      "geometry": {
        "coordinates": [
          [
            78.1751699718912,
            26.191883593770115
          ],
          [
            78.17515136406695,
            26.19194451593515
          ]
        ],
        "type": "LineString"
      }
    },
    {
      "type": "Feature",
      "properties": {},
      "geometry": {
        "coordinates": [
          [
            78.17496113782647,
            26.191828591939853
          ],
          [
            78.17499625310393,
            26.191707307591557
          ]
        ],
        "type": "LineString"
      }
    },
    {
      "type": "Feature",
      "properties": {},
      "geometry": {
        "coordinates": [
          [
            78.17499609130891,
            26.19170752702631
          ],
          [
            78.17493117940842,
            26.19169310905845
          ]
        ],
        "type": "LineString"
      }
    },
    {
      "type": "Feature",
      "properties": {},
      "geometry": {
        "coordinates": [
          [
            78.1749310548858,
            26.191693047619268
          ],
          [
            78.17484515983313,
            26.19167018295964
          ]
        ],
        "type": "LineString"
      }
    },
    {
      "type": "Feature",
      "properties": {},
      "geometry": {
        "coordinates": [
          [
            78.1748456561026,
            26.19167029181827
          ],
          [
            78.17475596973787,
            26.19164517077114
          ]
        ],
        "type": "LineString"
      }
    },
    {
      "type": "Feature",
      "properties": {},
      "geometry": {
        "coordinates": [
          [
            78.17417937701475,
            26.19243539622822
          ],
          [
            78.17430201898378,
            26.192046526106253
          ]
        ],
        "type": "LineString"
      }
    },
    {
      "type": "Feature",
      "properties": {},
      "geometry": {
        "coordinates": [
          [
            78.17430191678142,
            26.192046464699743
          ],
          [
            78.17398161432834,
            26.191980241713168
          ]
        ],
        "type": "LineString"
      }
    },
    {
      "type": "Feature",
      "properties": {},
      "geometry": {
        "coordinates": [
          [
            78.17430208673426,
            26.192046322160394
          ],
          [
            78.17460139169225,
            26.191149106686964
          ]
        ],
        "type": "LineString"
      }
    },
    {
      "type": "Feature",
      "properties": {},
      "geometry": {
        "coordinates": [
          [
            78.17460135794312,
            26.191149552306968
          ],
          [
            78.17579516340703,
            26.191418405639027
          ]
        ],
        "type": "LineString"
      }
    },
    {
      "type": "Feature",
      "properties": {},
      "geometry": {
        "coordinates": [
          [
            78.17460107481759,
            26.191149513894956
          ],
          [
            78.17470276258138,
            26.19085087775109
          ]
        ],
        "type": "LineString"
      }
    },
    {
      "type": "Feature",
      "properties": {},
      "geometry": {
        "coordinates": [
          [
            78.17484517968404,
            26.192223456183527
          ],
          [
            78.17492506338021,
            26.19194014036667
          ]
        ],
        "type": "LineString"
      }
    },
    {
      "type": "Feature",
      "properties": {},
      "geometry": {
        "coordinates": [
          [
            78.17492493499168,
            26.19193959504642
          ],
          [
            78.17499793217729,
            26.191957559452263
          ]
        ],
        "type": "LineString"
      }
    },
    {
      "type": "Feature",
      "properties": {},
      "geometry": {
        "coordinates": [
          [
            78.17499740597412,
            26.19195723862414
          ],
          [
            78.17507094169889,
            26.19197709254682
          ]
        ],
        "type": "LineString"
      }
    },
    {
      "type": "Feature",
      "properties": {},
      "geometry": {
        "coordinates": [
          [
            78.17492470164785,
            26.191939361283232
          ],
          [
            78.1748436821988,
            26.191920383262982
          ]
        ],
        "type": "LineString"
      }
    },
    {
      "type": "Feature",
      "properties": {},
      "geometry": {
        "coordinates": [
          [
            78.17484384800213,
            26.19192042930456
          ],
          [
            78.17478701869834,
            26.19190659019526
          ]
        ],
        "type": "LineString"
      }
    },
    {
      "type": "Feature",
      "properties": {},
      "geometry": {
        "coordinates": [
          [
            78.17461060409374,
            26.19160697188812
          ],
          [
            78.17463400043198,
            26.19153103828714
          ]
        ],
        "type": "LineString"
      }
    },
    {
      "type": "Feature",
      "properties": {},
      "geometry": {
        "coordinates": [
          [
            78.17461068355891,
            26.1916072011075
          ],
          [
            78.17458531298308,
            26.191693470726904
          ]
        ],
        "type": "LineString"
      }
    },
    {
      "type": "Feature",
      "properties": {},
      "geometry": {
        "coordinates": [
          [
            78.17458575808092,
            26.191693071330633
          ],
          [
            78.17456661887422,
            26.191760169879387
          ]
        ],
        "type": "LineString"
      }
    },
    {
      "type": "Feature",
      "properties": {},
      "geometry": {
        "coordinates": [
          [
            78.17448083358323,
            26.191855701008436
          ],
          [
            78.17443926570502,
            26.19200273755129
          ]
        ],
        "type": "LineString"
      }
    },
    {
      "type": "Feature",
      "properties": {},
      "geometry": {
        "coordinates": [
          [
            78.17440258771848,
            26.192110811492014
          ],
          [
            78.1744391976053,
            26.192002794216563
          ]
        ],
        "type": "LineString"
      }
    },
    {
      "type": "Feature",
      "properties": {},
      "geometry": {
        "coordinates": [
          [
            78.17499626477456,
            26.191707453697703
          ],
          [
            78.17505946866584,
            26.191723030147884
          ]
        ],
        "type": "LineString"
      }
    },
    {
      "type": "Feature",
      "properties": {},
      "geometry": {
        "coordinates": [
          [
            78.17505933611773,
            26.191723042901955
          ],
          [
            78.17513237482405,
            26.191741516145925
          ]
        ],
        "type": "LineString"
      }
    },
    {
      "type": "Feature",
      "properties": {},
      "geometry": {
        "coordinates": [
          [
            78.17499587945372,
            26.191707473973892
          ],
          [
            78.17506884752675,
            26.191480877359268
          ]
        ],
        "type": "LineString"
      }
    },
    {
      "type": "Feature",
      "properties": {},
      "geometry": {
        "coordinates": [
          [
            78.17506883294703,
            26.19148086778378
          ],
          [
            78.17508359717425,
            26.191438851755052
          ],
          [
            78.17514265408096,
            26.191456074543964
          ]
        ],
        "type": "LineString"
      }
    },
    {
      "type": "Feature",
      "properties": {},
      "geometry": {
        "coordinates": [
          [
            78.17514263778651,
            26.19145620687499
          ],
          [
            78.17522616112439,
            26.19148081085386
          ]
        ],
        "type": "LineString"
      }
    },
    {
      "type": "Feature",
      "properties": {},
      "geometry": {
        "coordinates": [
          [
            78.17461073192436,
            26.191606793365764
          ],
          [
            78.17469253907262,
            26.19162963707865
          ]
        ],
        "type": "LineString"
      }
    },
    {
      "type": "Feature",
      "properties": {},
      "geometry": {
        "coordinates": [
          [
            78.1747558321241,
            26.191645067962412
          ],
          [
            78.17469263257408,
            26.19162972456634
          ]
        ],
        "type": "LineString"
      }
    },
    {
      "type": "Feature",
      "properties": {},
      "geometry": {
        "coordinates": [
          [
            78.17456664163439,
            26.19175982874684
          ],
          [
            78.17454198090917,
            26.19184769370895
          ],
          [
            78.1744866830017,
            26.191835998763096
          ]
        ],
        "type": "LineString"
      }
    },
    {
      "type": "Feature",
      "properties": {},
      "geometry": {
        "coordinates": [
          [
            78.17448082735393,
            26.191855397451818
          ],
          [
            78.1744868623233,
            26.191835992603032
          ]
        ],
        "type": "LineString"
      }
    }
  ]
}